FARADAY_PHOENIX         
1 48924U 21059AX  24294.39602171  .00045567  00000+0  14681-2 0  9992
2 48924  97.6642  83.3579 0012321 357.8198   2.2987 15.31976018184088
PAINANI-2               
1 48928U 21059BB  24294.40742692  .00949161  41141-3  23721-2 0  9994
2 48928  97.6324  98.7240 0006725 286.3692  73.6844 15.95789148185081
DEMO8 (TENZING)         
1 48951U 21059CA  24294.87641186  .00027231  00000+0  91380-3 0  9994
2 48951  97.6699  83.7797 0011577   8.7886 351.3555 15.30788396184138
ASTROCAST-0201          
1 48954U 21059CD  24294.38328731  .00079208  00000+0  21982-2 0  9992
2 48954  97.6437  84.4329 0008901   4.4723 355.6598 15.36572566184231
ASTROCAST-0203          
1 48955U 21059CE  24294.40274115  .00066292  00000+0  18444-2 0  9990
2 48955  97.6431  83.9863 0008580 355.3463   4.7699 15.36555613184233
ASTROCAST-0205          
1 48960U 21059CK  24294.35991341  .00066114  00000+0  18419-2 0  9992
2 48960  97.6413  84.2608 0009195 333.0301  27.0463 15.36509357184238
NAPA-2                  
1 48963U 21059CN  24294.80095579  .00034150  00000+0  11046-2 0  9997
2 48963  97.6579  80.2319 0008796   2.9430 357.1861 15.31952980183978
W-CUBE                  
1 48965U 21059CQ  24294.40190807  .00082049  00000+0  20597-2 0  9996
2 48965  97.6593  83.9225 0006636 346.7728  13.3342 15.39676315184140
JILIN-1 GAOFEN 3D01     
1 49004U 21061B   24294.93496567  .00057648  00000+0  14858-2 0  9994
2 49004  97.3807 359.6486 0007908  63.5924 296.6132 15.38969341182882
JILIN-1 GAOFEN 3D03     
1 49006U 21061D   24294.89328722  .00041195  00000+0  15529-2 0  9994
2 49006  97.3789 354.9062 0010503 113.6517 246.5825 15.26895320182572
XINGSHIDAI 10           
1 49007U 21061E   24294.92453451  .00043506  00000+0  16196-2 0  9996
2 49007  97.3786 354.9419 0011458 101.2012 259.0516 15.27286829182574
FENGYUN 3E              
1 49008U 21062A   24294.93080530  .00000167  00000+0  99575-4 0  9993
2 49008  98.7386 294.5613 0002368  54.2140 305.9256 14.19802057170835
ISS (NAUKA)             
1 49044U 21066A   24294.81676321  .00027946  00000+0  49303-3 0  9990
2 49044  51.6393  53.1353 0009126  88.5934 271.6100 15.50127444184075
BRO-4                   
1 49066U 21073A   24294.90753668  .00121810  00000+0  22467-2 0  9998
2 49066  97.4356  12.7712 0014193 168.9475 191.2091 15.48572458176094
LEDSAT                  
1 49069U 21073D   24294.77897191  .00040530  00000+0  12675-2 0  9995
2 49069  97.4233   5.5893 0016478 195.7713 164.3018 15.32897015175633
STARLINK-3100           
1 49144U 21082Q   24294.79578941  .00000614  00000+0  59227-4 0  9995
2 49144  69.9981 127.4631 0002864 268.6463  91.4368 14.98331068170355
CUTE                    
1 49263U 21088D   24294.72655804  .00042673  00000+0  15275-2 0  9994
2 49263  97.4818   0.4580 0011141   7.1127 353.0268 15.28587209168757
2021-091B               
1 49316U 21091B   24294.91725392  .00013069  00000+0  62247-3 0  9997
2 49316  97.4533 120.6334 0002005  33.3429 326.7932 15.19259278167292
2021-091H               
1 49322U 21091H   24294.89872560  .00077448  00000+0  14111-2 0  9998
2 49322  97.4275 133.6272 0008141 349.8453  10.2632 15.49168598168195
SDGSAT 1                
1 49387U 21100A   24294.93792557  .00011321  00000+0  53764-3 0  9998
2 49387  97.3511 350.2068 0002756 251.5149 108.5787 15.19393256164157
ASTERISC                
1 49395U 21102A   24294.65638465  .00237461  00000+0  54189-2 0  9991
2 49395  97.4127 346.3508 0008767 135.6704 224.5246 15.41928050162509
TEIKYOSAT-4 (OORURI)    
1 49396U 21102B   24294.71418424  .00008075  00000+0  56280-3 0  9992
2 49396  97.4453 335.3489 0012299 199.9018 160.1731 15.05611007161632
Z-SAT                   
1 49399U 21102E   24294.90134532  .00012241  00000+0  74095-3 0  9995
2 49399  97.4155 337.4513 0019489 180.4998 179.6216 15.10596945161952
HIBARI                  
1 49400U 21102F   24294.67066611  .00029869  00000+0  15555-2 0  9993
2 49400  97.4142 339.7307 0016888 165.3245 194.8482 15.15831488162105
KOSEN-1                 
1 49402U 21102H   24294.65745967  .00024546  00000+0  13260-2 0  9999
2 49402  97.4079 339.1710 0018266 162.5650 197.6213 15.14552957162113
GLOBAL-14               
1 49469U 21106A   24294.17819231 -.00000248  00000+0  65778-6 0  9998
2 49469  42.0099 224.0091 0001574 203.5494 156.5274 15.39121365164906
GAOFEN-3 02             
1 49495U 21109A   24294.90480674  .00000359  00000+0  12217-3 0  9995
2 49495  98.4150 300.4807 0002568  37.9913 322.1458 14.42204590153213
GLOBAL-12               
1 49772U 21115BA  24294.41865537  .00070218  00000+0  17982-2 0  9995
2 49772  53.2049  21.1403 0005791 335.8172  24.2561 15.38764948162606
GLOBAL-13               
1 49773U 21115BB  24294.64974923  .00063002  00000+0  16033-2 0  9990
2 49773  53.2061  21.2841 0004466 335.5712  24.5081 15.39012366162626
GLOBAL-17               
1 49949U 21120A   24294.52771572  .00056430  00000+0  14548-2 0  9999
2 49949  42.0030 348.9217 0002081  42.4597 317.6403 15.38348565161631
GLOBAL-16               
1 49950U 21120B   24294.56176331  .00061555  00000+0  15956-2 0  9995
2 49950  42.0026 348.2975 0003512 335.3438  24.7233 15.38145025161633
XW-3 (CAS-9)            
1 50466U 21131B   24294.90582332  .00002069  00000+0  66911-3 0  9994
2 50466  98.5233  19.3881 0005239 109.1082 251.0674 14.40120274148095
UMBRA-02                
1 50986U 22002C   24294.75058266  .00338724  00000+0  30642-2 0  9997
2 50986  97.3641   0.9939 0008288 194.5340 165.5683 15.67005446153610
ION SCV-004             
1 50993U 22002K   24294.74679425  .00017033  00000+0  76152-3 0  9994
2 50993  97.3727 352.9393 0008294 341.8418  18.2520 15.21353737153092
IRIS-A                  
1 51044U 22002BN  24294.75598316  .00057067  00000+0  13568-2 0  9994
2 51044  97.3679   1.4571 0003860 306.3207  53.7683 15.41454548153690
KEPLER-19               
1 51051U 22002BV  24294.70993124  .00032445  00000+0  90891-3 0  9991
2 51051  97.3736 359.2421 0003791 331.8425  28.2614 15.36547107153518
ETV-A1                  
1 51060U 22002CE  24294.89178716  .00019344  00000+0  78071-3 0  9992
2 51060  97.3745 355.4352 0007035 355.1196   4.9972 15.24807651153257
BRO-5                   
1 51061U 22002CF  24294.89338595  .00019376  00000+0  68578-3 0  9992
2 51061  97.3795 357.8714 0006921 352.9176   7.1965 15.29161825153389
VZLUSAT-2               
1 51085U 22002DF  24294.86160225  .00038460  00000+0  11339-2 0  9995
2 51085  97.3712 358.7816 0007815 329.5800  30.4989 15.34883659153493
L-SAR 01A               
1 51284U 22007A   24294.94584491  .00002944  00000+0  32319-3 0  9995
2 51284  97.8110 300.0412 0001622  91.3032 268.8371 14.88443487148590
INSPIRESAT-1            
1 51657U 22013B   24294.63156785  .00044535  00000+0  14428-2 0  9995
2 51657  97.5187 312.8044 0009772  87.2732 272.9627 15.31830384148722
INS-2TD                 
1 51658U 22013C   24294.61794016  .00594751  00000+0  25687-2 0  9998
2 51658  97.4934 324.6557 0002943 101.0078 259.1522 15.83444559149525
L-SAR 01B               
1 51822U 22018A   24294.91211218  .00003355  00000+0  36760-3 0  9997
2 51822  97.8122 299.9708 0001528  95.5321 264.6070 14.88429194143827
2022-019D               
1 51827U 22019D   24294.88108155  .00035615  00000+0  13227-2 0  9990
2 51827  97.4213   5.6606 0012791 152.7532 207.4380 15.27396757146398
JILIN-1 GAOFEN 03D14    
1 51831U 22019H   24294.92110051  .00043604  00000+0  16833-2 0  9991
2 51831  97.4233   8.0198 0013139 141.1103 219.1084 15.26062182146551
2022-019J               
1 51832U 22019J   24294.89374134  .00007691  00000+0  40314-3 0  9990
2 51832  97.4199   1.0277 0009812 169.7943 190.3491 15.16012193146092
JILIN-1 GAOFEN 03D16    
1 51834U 22019L   24294.91686945  .00044117  00000+0  16465-2 0  9994
2 51834  97.4208   8.1870 0008742 149.8294 210.3450 15.27226081146566
JILIN-1 GAOFEN 03D11    
1 51835U 22019M   24294.93912337  .00044012  00000+0  16656-2 0  9990
2 51835  97.4241   8.2044 0011217 139.4568 220.7508 15.26742778146562
JILIN-1 GAOFEN 03D17    
1 51838U 22019Q   24294.90380212  .00051405  00000+0  14409-2 0  9999
2 51838  97.4217   9.8071 0009913 145.3404 214.8487 15.36381862146676
JILIN-1 GAOFEN 03D15    
1 51839U 22019R   24294.92185720  .00041870  00000+0  16113-2 0  9998
2 51839  97.4215   7.9755 0006270 147.0752 213.0878 15.26238131146563
JILIN-1 GAOFEN 03D10    
1 51840U 22019S   24294.91179606  .00044787  00000+0  16494-2 0  9997
2 51840  97.4218   8.2889 0006447 114.7355 245.4555 15.27678501146578
JILIN-1 GAOFEN 03D12    
1 51841U 22019T   24294.92914181  .00042730  00000+0  16438-2 0  9998
2 51841  97.4202   7.9819 0008714 127.4437 232.7596 15.26228727146565
JILIN-1 GAOFEN 03D18    
1 51844U 22019W   24294.93582697  .00042590  00000+0  16541-2 0  9994
2 51844  97.4200   7.7326 0013782 144.0720 216.1448 15.25858981146458
2022-023F               
1 51951U 22023F   24294.91198353  .00051347  00000+0  22568-2 0  9994
2 51951  63.5022 166.1403 0083665 342.1675  17.6505 15.18432674145968
CZ-4C R/B               
1 52085U 22027B   24294.82005354  .00000105  00000+0  22048-3 0  9995
2 52085  63.3963 227.3360 0178977  25.9077 335.0786 13.65412668129516
MERIDIAN 10             
1 52145U 22030A   24293.80585790  .00000193  00000+0  00000+0 0  9997
2 52145  62.6539 204.6149 6794040 273.7221  17.3032  2.00609030 18881
OMNI-L1                 
1 52157U 22033A   24294.42252029  .00012198  00000+0  16192-2 0  9998
2 52157  97.8875  14.2212 0007095  89.7854 270.4171 14.79926163137933
ENMAP                   
1 52159U 22033C   24294.85410052  .00002189  00000+0  33303-3 0  9992
2 52159  97.9771  14.7758 0001491  74.8129 285.3244 14.74973946137577
ARCSAT-1                
1 52161U 22033E   24294.21351669  .00028827  00000+0  81838-3 0  9996
2 52161  97.3149  12.9803 0006119 223.6839 136.3921 15.36143715142281
